NORAD_CAT_ID,OBJECT_NAME,OBJECT_TYPE,EPOCH,MEAN_MOTION,ECCENTRICITY,INCLINATION,RA_OF_ASC_NODE,ARG_OF_PERICENTER,MEAN_ANOMALY,BSTAR,MEAN_MOTION_DOT,MEAN_MOTION_DDOT,TLE_LINE0,TLE_LINE1,TLE_LINE2,SEMIMAJOR_AXIS,PERIOD,APOGEE,PERIGEE,DECAYED
53933.0,STARLINK-4782,PAYLOAD,2022-11-19 14:00:01,15.73156321,0.0004292,53.2156,337.7253,1.5904,26.4552,0.00046088,0.00064462,0.0,0 STARLINK-4782,1 53933U 22119AZ  22323.58334491  .00064462  00000-0  46088-3 0  9998,2 53933  53.2156 337.7253 0004292   1.5904  26.4552 15.73156321  1305,6728.02,91.536,352.772,346.997,0.0
53933.0,STARLINK-4782,PAYLOAD,2022-11-19 20:00:01,15.73178928,0.0004083,53.2158,336.4866,2.6197,2.1031,0.00046949,0.00065749,0.0,0 STARLINK-4782,1 53933U 22119AZ  22323.83334491  .00065749  00000-0  46949-3 0  9991,2 53933  53.2158 336.4866 0004083   2.6197   2.1031 15.73178928  9226,6727.955,91.534,352.56699999999995,347.0730000000001,0.0
53933.0,STARLINK-4782,PAYLOAD,2022-11-19 22:00:00,15.73198638,0.0004053999999999,53.2156,336.0739,3.4613,113.4894,0.00025353,0.00035118,0.0,0 STARLINK-4782,1 53933U 22119AZ  22323.91667824  .00035118  00000-0  25353-3 0  9992,2 53933  53.2156 336.0739 0004054   3.4613 113.4894 15.73198638  1303,6727.899,91.533,352.492,347.037,0.0
53933.0,STARLINK-4782,PAYLOAD,2022-11-20 06:00:00,15.73222291,0.0004235,53.2153,334.4259,5.6158,200.281,-0.00072787,-0.0010171,0.0,0 STARLINK-4782,1 53933U 22119AZ  22324.25001157 -.00101710  00000-0 -72787-3 0  9998,2 53933  53.2153 334.4259 0004235   5.6158 200.2810 15.73222291  9290,6727.831999999999,91.532,352.546,346.847,0.0
53933.0,STARLINK-4782,PAYLOAD,2022-11-20 14:00:01,15.73146081,0.0004333,53.2147,332.7767,4.301,290.5012,0.00027941,0.00038698,0.0,0 STARLINK-4782,1 53933U 22119AZ  22324.58334491  .00038698  00000-0  27941-3 0  9998,2 53933  53.2147 332.7767 0004333   4.3010 290.5012 15.73146081  1302,6728.049,91.536,352.829,346.999,0.0
53933.0,STARLINK-4782,PAYLOAD,2022-11-20 22:00:00,15.73166281,0.0004042,53.2148,331.1252,4.339,19.349,-9.2313e-05,-0.00013547,0.0,0 STARLINK-4782,1 53933U 22119AZ  22324.91667824 -.00013547  00000-0 -92313-4 0  9998,2 53933  53.2148 331.1252 0004042   4.3390  19.3490 15.73166281  9391,6727.991,91.535,352.576,347.13699999999994,0.0
53933.0,STARLINK-4782,PAYLOAD,2022-11-21 06:00:00,15.73168499,0.0004252,53.2149,329.4774,4.9775,107.613,0.00018447,0.0002532,0.0,0 STARLINK-4782,1 53933U 22119AZ  22325.25001157  .00025320  00000-0  18447-3 0  9992,2 53933  53.2149 329.4774 0004252   4.9775 107.6130 15.73168499  9459,6727.985,91.535,352.711,346.98900000000015,0.0
53933.0,STARLINK-4782,PAYLOAD,2022-11-21 14:00:01,15.73207402,0.0004365,53.2148,327.8280000000001,5.2781,196.2103,0.0002648999999999,0.00036745,0.0,0 STARLINK-4782,1 53933U 22119AZ  22325.58334491  .00036745  00000-0  26490-3 0  9998,2 53933  53.2148 327.8280 0004365   5.2781 196.2103 15.73207402  1306,6727.874,91.533,352.676,346.802,0.0
53933.0,STARLINK-4782,PAYLOAD,2022-11-21 22:00:00,15.73228604,0.0004141999999999,53.2147,326.1764,5.9469,284.5023,0.00059305,0.00083574,0.0,0 STARLINK-4782,1 53933U 22119AZ  22325.91667824  .00083574  00000-0  59305-3 0  9997,2 53933  53.2147 326.1764 0004142   5.9469 284.5023 15.73228604  1306,6727.814,91.532,352.465,346.892,0.0
53933.0,STARLINK-4782,PAYLOAD,2022-11-22 06:00:02,15.73298122,0.0004262,53.2145,324.5285,4.2146,15.3,-0.00090601,-0.00126495,0.0,0 STARLINK-4782,1 53933U 22119AZ  22326.25002315 -.00126495  00000-0 -90601-3 0  9999,2 53933  53.2145 324.5285 0004262   4.2146  15.3000 15.73298122  9609,6727.615,91.527,352.348,346.61300000000006,0.0
53933.0,STARLINK-4782,PAYLOAD,2022-11-22 14:00:01,15.73213265,0.0004295,53.2139,322.8786,0.6508,107.8296,-0.00057192,-0.00080223,0.0,0 STARLINK-4782,1 53933U 22119AZ  22326.58335648 -.00080223  00000-0 -57192-3 0  9999,2 53933  53.2139 322.8786 0004295   0.6508 107.8296 15.73213265  1305,6727.857,91.532,352.612,346.833,0.0
53933.0,STARLINK-4782,PAYLOAD,2022-11-22 22:00:00,15.73137733,0.0003966,53.2141,321.2272,0.4989,196.8303,0.00066427,0.00093427,0.0,0 STARLINK-4782,1 53933U 22119AZ  22326.91667824  .00093427  00000-0  66427-3 0  9999,2 53933  53.2141 321.2272 0003966   0.4989 196.8303 15.73137733  9711,6728.073,91.537,352.606,347.269,0.0
53933.0,STARLINK-4782,PAYLOAD,2022-11-23 14:00:01,15.73178521,0.0004267,53.2143,317.9296,359.6804,15.4688,0.00014197,0.00019337,0.0,0 STARLINK-4782,1 53933U 22119AZ  22327.58334491  .00019337  00000-0  14197-3 0  9999,2 53933  53.2143 317.9296 0004267 359.6804  15.4688 15.73178521  9814,6727.956,91.534,352.69199999999995,346.951,0.0
53933.0,STARLINK-4782,PAYLOAD,2022-11-23 22:00:00,15.732022,0.0004039,53.2145,316.2783,0.7498,103.3108,0.00025614,0.00035493,0.0,0 STARLINK-4782,1 53933U 22119AZ  22327.91667824  .00035493  00000-0  25614-3 0  9992,2 53933  53.2145 316.2783 0004039   0.7498 103.3108 15.73202200  1301,6727.889,91.533,352.471,347.037,0.0
53933.0,STARLINK-4782,PAYLOAD,2022-11-24 14:00:01,15.73222902,0.000426,53.2137,312.9804,0.568,281.3593,-6.4823000000000014e-06,-1.536e-05,0.0,0 STARLINK-4782,1 53933U 22119AZ  22328.58334491 -.00001536  00000-0 -64823-5 0  9997,2 53933  53.2137 312.9804 0004260   0.5680 281.3593 15.73222902  1302,6727.83,91.532,352.561,346.829,0.0
53933.0,STARLINK-4782,PAYLOAD,2022-11-24 22:00:00,15.73203819,0.0004015,53.2141,311.3292,3.9099,6.9765,5.6138e-05,7.265e-05,0.0,0 STARLINK-4782,1 53933U 22119AZ  22328.91667824  .00007265  00000-0  56138-4 0  9995,2 53933  53.2141 311.3292 0004015   3.9099   6.9765 15.73203819 10027,6727.884,91.533,352.451,347.048,0.0
53933.0,STARLINK-4782,PAYLOAD,2022-11-25 14:00:01,15.7320634,0.0004253999999999,53.2144,308.0314,4.0926,184.6792,0.00014914,0.00020372,0.0,0 STARLINK-4782,1 53933U 22119AZ  22329.58334491  .00020372  00000-0  14914-3 0  9999,2 53933  53.2144 308.0314 0004254   4.0926 184.6792 15.73206340  1301,6727.877,91.533,352.60400000000016,346.88,0.0
53933.0,STARLINK-4782,PAYLOAD,2022-11-25 22:00:00,15.73248929,0.0004072,53.2146,306.3804,7.4258,270.2891,-5.0087e-05,-7.666e-05,0.0,0 STARLINK-4782,1 53933U 22119AZ  22329.91667824 -.00007666  00000-0 -50087-4 0  9990,2 53933  53.2146 306.3804 0004072   7.4258 270.2891 15.73248929  1302,6727.755999999999,91.53,352.36,346.881,0.0
53933.0,STARLINK-4782,PAYLOAD,2022-11-26 06:00:00,15.73220769,0.0004341,53.2142,304.7328,9.8668,356.8403,0.0004296,0.00060182,0.0,0 STARLINK-4782,1 53933U 22119AZ  22330.25001157  .00060182  00000-0  42960-3 0  9990,2 53933  53.2142 304.7328 0004341   9.8668 356.8403 15.73220769 10235,6727.8359999999975,91.532,352.622,346.78,0.0
53933.0,STARLINK-4782,PAYLOAD,2022-11-26 14:00:01,15.73298423,0.0004219,53.2138,303.0824,7.3473,88.323,-0.0011224,-0.00156019,0.0,0 STARLINK-4782,1 53933U 22119AZ  22330.58334491 -.00156019  00000-0 -11224-2 0  9991,2 53933  53.2138 303.0824 0004219   7.3473  88.3230 15.73298423 10297,6727.615,91.527,352.3180000000001,346.641,0.0
53933.0,STARLINK-4782,PAYLOAD,2022-11-26 22:00:00,15.7319318,0.0003967,53.2141,301.4317,7.6212,177.0253,-0.00014113,-0.00020387,0.0,0 STARLINK-4782,1 53933U 22119AZ  22330.91667824 -.00020387  00000-0 -14113-3 0  9996,2 53933  53.2141 301.4317 0003967   7.6212 177.0253 15.73193180 10344,6727.915,91.534,352.449,347.111,0.0
53933.0,STARLINK-4782,PAYLOAD,2022-11-27 14:00:01,15.731488,0.0004167,53.2142,298.1339,7.3925,355.0529,-6.1252e-06,-1.483e-05,0.0,0 STARLINK-4782,1 53933U 22119AZ  22331.58334491 -.00001483  00000-0 -61252-5 0  9995,2 53933  53.2142 298.1339 0004167   7.3925 355.0529 15.73148800  1301,6728.041,91.536,352.71,347.103,0.0
53933.0,STARLINK-4782,PAYLOAD,2022-11-27 22:00:00,15.73176056,0.0004032,53.2143,296.4834,8.8455,82.461,0.0001902,0.00026136,0.0,0 STARLINK-4782,1 53933U 22119AZ  22331.91667824  .00026136  00000-0  19020-3 0  9995,2 53933  53.2143 296.4834 0004032   8.8455  82.4610 15.73176056  1304,6727.9630000000025,91.535,352.541,347.116,0.0
53933.0,STARLINK-4782,PAYLOAD,2022-11-28 06:00:00,15.73157893,0.0004293,53.2138,294.836,7.6475,172.5819,0.00023412,0.00032315,0.0,0 STARLINK-4782,1 53933U 22119AZ  22332.25001157  .00032315  00000-0  23412-3 0  9990,2 53933  53.2138 294.8360 0004293   7.6475 172.5819 15.73157893 10559,6728.015,91.536,352.769,346.992,0.0
53933.0,STARLINK-4782,PAYLOAD,2022-11-28 22:00:01,15.73237104,0.0003945,53.2135,291.535,8.3655,349.7467,0.00026094,0.00036227,0.0,0 STARLINK-4782,1 53933U 22119AZ  22332.91668981  .00036227  00000-0  26094-3 0  9992,2 53933  53.2135 291.5350 0003945   8.3655 349.7467 15.73237104 10652,6727.7890000000025,91.531,352.309,347.0,0.0
53933.0,STARLINK-4782,PAYLOAD,2022-11-29 06:00:00,15.732518300000002,0.0004125,53.2135,289.8875,5.2009,81.8415,-0.0004757,-0.00067041,0.0,0 STARLINK-4782,1 53933U 22119AZ  22333.25001157 -.00067041  00000-0 -47570-3 0  9998,2 53933  53.2135 289.8875 0004125   5.2009  81.8415 15.73251830 10710,6727.746999999999,91.53,352.38800000000015,346.837,0.0
53933.0,STARLINK-4782,PAYLOAD,2022-11-29 14:00:01,15.73210718,0.0003987,53.2135,288.2364,1.2489,174.8167,-0.00056435,-0.00079163,0.0,0 STARLINK-4782,1 53933U 22119AZ  22333.58335648 -.00079163  00000-0 -56435-3 0  9997,2 53933  53.2135 288.2364 0003987   1.2489 174.8167 15.73210718  1301,6727.865,91.533,352.412,347.047,0.0
53933.0,STARLINK-4782,PAYLOAD,2022-11-29 22:00:00,15.7316758,0.0003816,53.2135,286.5863,2.3724,262.5251,0.0003854,0.00053755,0.0,0 STARLINK-4782,1 53933U 22119AZ  22333.91667824  .00053755  00000-0  38540-3 0  9992,2 53933  53.2135 286.5863 0003816   2.3724 262.5251 15.73167580  1308,6727.988,91.535,352.42,347.285,0.0
53933.0,STARLINK-4782,PAYLOAD,2022-11-30 06:00:00,15.73195295,0.0004084,53.2131,284.9388,3.0816,350.7286,0.00033259,0.0004632,0.0,0 STARLINK-4782,1 53933U 22119AZ  22334.25001157  .00046320  00000-0  33259-3 0  9993,2 53933  53.2131 284.9388 0004084   3.0816 350.7286 15.73195295 10869,6727.909000000002,91.533,352.521,347.026,0.0
